IRIDIUM 36 [-]          
1 24967U 97056C   23271.88523826  .00000839  00000+0  28001-3 0  9995
2 24967  86.3920  76.3570 0001888  93.2587 266.8826 14.36412730362139
IRIDIUM 42 [-]          
1 25077U 97077A   23271.71926380  .00000637  00000+0  21608-3 0  9997
2 25077  86.3983 142.3468 0002340  68.9126 291.2320 14.35205195351169
IRIDIUM 44 [-]          
1 25078U 97077B   23271.67973581  .00000691  00000+0  21762-3 0  9999
2 25078  86.3938 125.9822 0000872  22.7618 337.3619 14.38988975353424
IRIDIUM 45 [-]          
1 25104U 97082A   23271.68965376  .00014587  00000+0  93970-3 0  9998
2 25104  86.3820 344.7158 0183101 108.6923 253.4280 14.95336281357535
IRIDIUM 24 [-]          
1 25105U 97082B   23271.74275290  .00000862  00000+0  26352-3 0  9996
2 25105  86.3962 345.9903 0011241   0.2308 359.8895 14.40745641352838
IRIDIUM 51 [-]          
1 25262U 98018A   23271.73394028  .00012782  00000+0  70998-3 0  9999
2 25262  86.4002 355.2648 0168353  64.3712 297.4806 15.02187823351902
